{"type":"FeatureCollection","name":"SligoCreek_outlet_and_extent","features":[{"type":"Feature","properties":{"name":"Sligo Creek reviewed outlet","role":"watershed_outlet","source":"SC outlet.kmz; reviewed GIStoOHQ delineation","buffer_m":1000,"review_status":"accepted for the 23.67 km2 modeled catchment","scope_note":"Delineate only Sligo Creek upstream; the Estimated Sligo Creek KMZ is an acquisition estimate, not the validation boundary"},"geometry":{"type":"Point","coordinates":[-76.98873786162696,38.97837618066522]}}]}
