{"type":"FeatureCollection","name":"JohnMcCormack3600_outlet_and_extent","features":[{"type":"Feature","properties":{"name":"John McCormack Road local drainage candidate","role":"local_study_outlet_candidate","source":"JM.kmz","buffer_m":500,"study_window":"1 km x 1 km","review_status":"not verified against survey, plan-set drainage structures, or buried storm-sewer records","scope_note":"Street and near-area bioretention screening only"},"geometry":{"type":"Point","coordinates":[-76.99597205373109,38.93589535566567]}}]}
